EARTHCARE               
1 59908U 24101A   24231.83140741  .00030214  00000+0  42587-3 0  9997
2 59908  96.9859 358.1289 0003062 213.7331 146.3730 15.56564346 12727
